{"type": "FeatureCollection", "features": [ {"type": "Feature", "properties": {"norad_id": 44476, "name": "INTELSAT 39 (IS-39)", "group": "intelsat", "lat": 0.0331344514196362, "lon": 93.05612249328527, "alt_km": 35783.86497382818, "timestamp": "2025-12-11T20:41:14.755142+00:00", "meta": {"OBJECT_NAME": "INTELSAT 39 (IS-39)", "OBJECT_ID": "2019-049B", "EPOCH": "2025-12-11T12:05:38.207616", "MEAN_MOTION": 1.00270898, "ECCENTRICITY": 9.576e-05, "INCLINATION": 0.0198, "RA_OF_ASC_NODE": 332.5138, "ARG_OF_PERICENTER": 173.3627, "MEAN_ANOMALY": 177.9389, "EPHEMERIS_TYPE": 0, "CLASSIFICATION_TYPE": "U", "NORAD_CAT_ID": 44476, "ELEMENT_SET_NO": 999, "REV_AT_EPOCH": 2324, "BSTAR": 0, "MEAN_MOTION_DOT": 4.1e-07, "MEAN_MOTION_DDOT": 0}, "tle": {"line1": "1 44476U 19049B   25345.50391444  .00000041  00000+0  00000+0 0  9990", "line2": "2 44476   0.0198 332.5138 0000957 173.3627 177.9389  1.00270898 23240"}}, "geometry": {"type": "Point", "coordinates": [93.05612249328527, 0.0331344514196362]}}, {"type": "Feature", "properties": {"norad_id": 46114, "name": "GALAXY 30 (G-30)", "group": "intelsat", "lat": -0.03332025012624593, "lon": -93.87333765898924, "alt_km": 35776.24883410338, "timestamp": "2025-12-11T20:41:14.755153+00:00", "meta": {"OBJECT_NAME": "GALAXY 30 (G-30)", "OBJECT_ID": "2020-056C", "EPOCH": "2025-12-11T14:37:46.138656", "MEAN_MOTION": 1.00272524, "ECCENTRICITY": 0.00022811, "INCLINATION": 0.0176, "RA_OF_ASC_NODE": 333.1168, "ARG_OF_PERICENTER": 287.8173, "MEAN_ANOMALY": 274.0762, "EPHEMERIS_TYPE": 0, "CLASSIFICATION_TYPE": "U", "NORAD_CAT_ID": 46114, "ELEMENT_SET_NO": 999, "REV_AT_EPOCH": 1941, "BSTAR": 0, "MEAN_MOTION_DOT": 4.4e-07, "MEAN_MOTION_DDOT": 0}, "tle": {"line1": "1 46114U 20056C   25345.60956179  .00000044  00000+0  00000+0 0  9997", "line2": "2 46114   0.0176 333.1168 0002281 287.8173 274.0762  1.00272524 19412"}}, "geometry": {"type": "Point", "coordinates": [-93.87333765898924, -0.03332025012624593]}}, {"type": "Feature", "properties": {"norad_id": 54026, "name": "GALAXY 33 (G-33)", "group": "intelsat", "lat": -0.030341866856509546, "lon": -101.8740555087038, "alt_km": 35777.65079602846, "timestamp": "2025-12-11T20:41:14.755164+00:00", "meta": {"OBJECT_NAME": "GALAXY 33 (G-33)", "OBJECT_ID": "2022-128A", "EPOCH": "2025-12-11T12:52:41.202336", "MEAN_MOTION": 1.00271156, "ECCENTRICITY": 0.00020313, "INCLINATION": 0.0136, "RA_OF_ASC_NODE": 328.8724, "ARG_OF_PERICENTER": 286.0132, "MEAN_ANOMALY": 245.7839, "EPHEMERIS_TYPE": 0, "CLASSIFICATION_TYPE": "U", "NORAD_CAT_ID": 54026, "ELEMENT_SET_NO": 999, "REV_AT_EPOCH": 1186, "BSTAR": 0, "MEAN_MOTION_DOT": 8.6e-07, "MEAN_MOTION_DDOT": 0}, "tle": {"line1": "1 54026U 22128A   25345.53658799  .00000086  00000+0  00000+0 0  9995", "line2": "2 54026   0.0136 328.8724 0002031 286.0132 245.7839  1.00271156 11868"}}, "geometry": {"type": "Point", "coordinates": [-101.8740555087038, -0.030341866856509546]}}, {"type": "Feature", "properties": {"norad_id": 54027, "name": "GALAXY 34 (G-34)", "group": "intelsat", "lat": -0.03972125368155993, "lon": -97.80833076339104, "alt_km": 35780.83078428075, "timestamp": "2025-12-11T20:41:14.755176+00:00", "meta": {"OBJECT_NAME": "GALAXY 34 (G-34)", "OBJECT_ID": "2022-128B", "EPOCH": "2025-12-11T14:36:38.746656", "MEAN_MOTION": 1.00269872, "ECCENTRICITY": 0.00013828, "INCLINATION": 0.0225, "RA_OF_ASC_NODE": 339.5173, "ARG_OF_PERICENTER": 273.4397, "MEAN_ANOMALY": 277.839, "EPHEMERIS_TYPE": 0, "CLASSIFICATION_TYPE": "U", "NORAD_CAT_ID": 54027, "ELEMENT_SET_NO": 999, "REV_AT_EPOCH": 1203, "BSTAR": 0, "MEAN_MOTION_DOT": 0, "MEAN_MOTION_DDOT": 0}, "tle": {"line1": "1 54027U 22128B   25345.60878179  .00000000  00000+0  00000+0 0  9996", "line2": "2 54027   0.0225 339.5173 0001382 273.4397 277.8390  1.00269872 12036"}}, "geometry": {"type": "Point", "coordinates": [-97.80833076339104, -0.03972125368155993]}}, {"type": "Feature", "properties": {"norad_id": 54243, "name": "GALAXY 31 (G-31)", "group": "intelsat", "lat": -0.008184951454979444, "lon": -89.86588333261804, "alt_km": 35778.059620438165, "timestamp": "2025-12-11T20:41:14.755187+00:00", "meta": {"OBJECT_NAME": "GALAXY 31 (G-31)", "OBJECT_ID": "2022-153A", "EPOCH": "2025-12-10T23:14:20.350176", "MEAN_MOTION": 1.00272485, "ECCENTRICITY": 0.00018393, "INCLINATION": 0.0145, "RA_OF_ASC_NODE": 258.162, "ARG_OF_PERICENTER": 13.4578, "MEAN_ANOMALY": 35.9092, "EPHEMERIS_TYPE": 0, "CLASSIFICATION_TYPE": "U", "NORAD_CAT_ID": 54243, "ELEMENT_SET_NO": 999, "REV_AT_EPOCH": 524, "BSTAR": 0, "MEAN_MOTION_DOT": 1.8e-07, "MEAN_MOTION_DDOT": 0}, "tle": {"line1": "1 54243U 22153A   25344.96829109  .00000018  00000+0  00000+0 0  9990", "line2": "2 54243   0.0145 258.1620 0001839  13.4578  35.9092  1.00272485  5241"}}, "geometry": {"type": "Point", "coordinates": [-89.86588333261804, -0.008184951454979444]}}, {"type": "Feature", "properties": {"norad_id": 54244, "name": "GALAXY 32 (G-32)", "group": "intelsat", "lat": -0.017666584151603354, "lon": -59.895129300347364, "alt_km": 35776.415292673875, "timestamp": "2025-12-11T20:41:14.755198+00:00", "meta": {"OBJECT_NAME": "GALAXY 32 (G-32)", "OBJECT_ID": "2022-153B", "EPOCH": "2025-12-10T11:23:53.431008", "MEAN_MOTION": 1.00269631, "ECCENTRICITY": 0.00024863, "INCLINATION": 0.0094, "RA_OF_ASC_NODE": 343.9176, "ARG_OF_PERICENTER": 325.4249, "MEAN_ANOMALY": 210.0765, "EPHEMERIS_TYPE": 0, "CLASSIFICATION_TYPE": "U", "NORAD_CAT_ID": 54244, "ELEMENT_SET_NO": 999, "REV_AT_EPOCH": 1125, "BSTAR": 0, "MEAN_MOTION_DOT": -1.7e-06, "MEAN_MOTION_DDOT": 0}, "tle": {"line1": "1 54244U 22153B   25344.47492397 -.00000170  00000+0  00000+0 0  9992", "line2": "2 54244   0.0094 343.9176 0002486 325.4249 210.0765  1.00269631 11254"}}, "geometry": {"type": "Point", "coordinates": [-59.895129300347364, -0.017666584151603354]}}, {"type": "Feature", "properties": {"norad_id": 54741, "name": "GALAXY 35 (G-35)", "group": "intelsat", "lat": -0.00034914188488094735, "lon": -61.95221724291518, "alt_km": 35777.1482953924, "timestamp": "2025-12-11T20:41:14.755210+00:00", "meta": {"OBJECT_NAME": "GALAXY 35 (G-35)", "OBJECT_ID": "2022-170A", "EPOCH": "2025-12-11T13:04:10.103232", "MEAN_MOTION": 1.00271246, "ECCENTRICITY": 0.00025278, "INCLINATION": 0.0151, "RA_OF_ASC_NODE": 264.5211, "ARG_OF_PERICENTER": 1.8922, "MEAN_ANOMALY": 277.0423, "EPHEMERIS_TYPE": 0, "CLASSIFICATION_TYPE": "U", "NORAD_CAT_ID": 54741, "ELEMENT_SET_NO": 999, "REV_AT_EPOCH": 1101, "BSTAR": 0, "MEAN_MOTION_DOT": -1.55e-06, "MEAN_MOTION_DDOT": 0}, "tle": {"line1": "1 54741U 22170A   25345.54456138 -.00000155  00000+0  00000+0 0  9998", "line2": "2 54741   0.0151 264.5211 0002527   1.8922 277.0423  1.00271246 11010"}}, "geometry": {"type": "Point", "coordinates": [-61.95221724291518, -0.00034914188488094735]}}, {"type": "Feature", "properties": {"norad_id": 54742, "name": "GALAXY 36 (G-36)", "group": "intelsat", "lat": -0.011613346483002288, "lon": -57.8735933794976, "alt_km": 35784.347273647945, "timestamp": "2025-12-11T20:41:14.755221+00:00", "meta": {"OBJECT_NAME": "GALAXY 36 (G-36)", "OBJECT_ID": "2022-170B", "EPOCH": "2025-12-11T13:05:17.495232", "MEAN_MOTION": 1.00272293, "ECCENTRICITY": 3.999e-05, "INCLINATION": 0.015, "RA_OF_ASC_NODE": 77.5837, "ARG_OF_PERICENTER": 207.9216, "MEAN_ANOMALY": 262.3232, "EPHEMERIS_TYPE": 0, "CLASSIFICATION_TYPE": "U", "NORAD_CAT_ID": 54742, "ELEMENT_SET_NO": 999, "REV_AT_EPOCH": 1089, "BSTAR": 0, "MEAN_MOTION_DOT": -1.78e-06, "MEAN_MOTION_DDOT": 0}, "tle": {"line1": "1 54742U 22170B   25345.54534138 -.00000178  00000+0  00000+0 0  9991", "line2": "2 54742   0.0150  77.5837 0000399 207.9216 262.3232  1.00272293 10899"}}, "geometry": {"type": "Point", "coordinates": [-57.8735933794976, -0.011613346483002288]}}, {"type": "Feature", "properties": {"norad_id": 57493, "name": "GALAXY 37 (G-37)", "group": "intelsat", "lat": -0.02419898572561603, "lon": -95.87454324068766, "alt_km": 35776.93591211235, "timestamp": "2025-12-11T20:41:14.755232+00:00", "meta": {"OBJECT_NAME": "GALAXY 37 (G-37)", "OBJECT_ID": "2023-112A", "EPOCH": "2025-12-11T14:37:08.698944", "MEAN_MOTION": 1.0027129, "ECCENTRICITY": 0.00021916, "INCLINATION": 0.0109, "RA_OF_ASC_NODE": 21.1051, "ARG_OF_PERICENTER": 244.2234, "MEAN_ANOMALY": 267.5281, "EPHEMERIS_TYPE": 0, "CLASSIFICATION_TYPE": "U", "NORAD_CAT_ID": 57493, "ELEMENT_SET_NO": 999, "REV_AT_EPOCH": 866, "BSTAR": 0, "MEAN_MOTION_DOT": 5.5e-07, "MEAN_MOTION_DDOT": 0}, "tle": {"line1": "1 57493U 23112A   25345.60912846  .00000055  00000+0  00000+0 0  9990", "line2": "2 57493   0.0109  21.1051 0002191 244.2234 267.5281  1.00271290  8667"}}, "geometry": {"type": "Point", "coordinates": [-95.87454324068766, -0.02419898572561603]}}]}